[{"OBJECT_NAME":"STARLINK-5920","OBJECT_ID":"2023-037X","EPOCH":"2026-03-09T22:11:22.157664","MEAN_MOTION":14.98330041,"ECCENTRICITY":0.00027806,"INCLINATION":69.9981,"RA_OF_ASC_NODE":283.935,"ARG_OF_PERICENTER":270.2214,"MEAN_ANOMALY":89.8627,"EPHEMERIS_TYPE":0,"CLASSIFICATION_TYPE":"U","NORAD_CAT_ID":55935,"ELEMENT_SET_NO":999,"REV_AT_EPOCH":16401,"BSTAR":-3.4794604e-5,"MEAN_MOTION_DOT":-5.08e-6,"MEAN_MOTION_DDOT":0},{"OBJECT_NAME":"MEGSAT-1","OBJECT_ID":"2000-057B","EPOCH":"2026-03-09T22:47:17.292480","MEAN_MOTION":15.04862037,"ECCENTRICITY":0.0038022,"INCLINATION":64.552,"RA_OF_ASC_NODE":26.971,"ARG_OF_PERICENTER":294.4401,"MEAN_ANOMALY":65.2751,"EPHEMERIS_TYPE":0,"CLASSIFICATION_TYPE":"U","NORAD_CAT_ID":26546,"ELEMENT_SET_NO":999,"REV_AT_EPOCH":38272,"BSTAR":0.00040228449,"MEAN_MOTION_DOT":5.624e-5,"MEAN_MOTION_DDOT":0}]
